ORBCOMM FM05 [-]        
1 25117U 97084F   23237.48896173  .00001309  00000+0  44503-3 0  9998
2 25117  45.0165 292.3124 0002696 191.0742 169.0049 14.41290470345002
ORBCOMM FM06 [+]        
1 25118U 97084G   23237.53294780  .00001385  00000+0  46893-3 0  9999
2 25118  45.0161 292.2388 0002667 213.0407 250.8350 14.41223454345924
ORBCOMM FM07 [-]        
1 25119U 97084H   23237.49274680  .00001275  00000+0  43580-3 0  9990
2 25119  45.0153 292.8505 0002568 171.5009 188.5884 14.41167411345917
ORBCOMM FM17 [-]        
1 25413U 98046A   23237.08748882  .00000997  00000+0  41799-3 0  9991
2 25413  44.9948 134.7084 0001037 107.1098 252.9861 14.32255146308163
ORBCOMM FM18 [-]        
1 25414U 98046B   23237.55327753  .00001237  00000+0  48223-3 0  9991
2 25414  44.9945  64.7987 0004207 189.3805 170.6963 14.34712956309119
ORBCOMM FM19 [+]        
1 25415U 98046C   23237.49633509  .00001134  00000+0  44709-3 0  9995
2 25415  44.9954  66.1670 0003127 177.3565 201.2151 14.34593736309073
